[{"COMMENT":"GENERATED VIA SPACETRACK.ORG API","ORIGINATOR":"18 SPCS","NORAD_CAT_ID":"43476","OBJECT_NAME":"GRACE-FO 1","OBJECT_TYPE":"PAYLOAD","CLASSIFICATION_TYPE":"U","INTLDES":"18047A","EPOCH":"2023-09-29 12:19:01","EPOCH_MICROSECONDS":"419168","MEAN_MOTION":"15.26907699","ECCENTRICITY":"0.0013769","INCLINATION":"88.9894","RA_OF_ASC_NODE":"335.0056","ARG_OF_PERICENTER":"8.5123","MEAN_ANOMALY":"351.6357","EPHEMERIS_TYPE":"0","ELEMENT_SET_NO":"999","REV_AT_EPOCH":"29791","BSTAR":"0.00016254","MEAN_MOTION_DOT":"0.00004332","MEAN_MOTION_DDOT":"0","FILE":"4019711","TLE_LINE0":"0 GRACE-FO 1","TLE_LINE1":"1 43476U 18047A   23272.51321087  .00004332  00000-0  16254-3 0  9990","TLE_LINE2":"2 43476  88.9894 335.0056 0013769   8.5123 351.6357 15.26907699297911","OBJECT_ID":"2018-047A","OBJECT_NUMBER":"43476","SEMIMAJOR_AXIS":"6863.200","PERIOD":"94.308","APOGEE":"494.515","PERIGEE":"475.615","DECAYED":"0"},{"COMMENT":"GENERATED VIA SPACETRACK.ORG API","ORIGINATOR":"18 SPCS","NORAD_CAT_ID":"43476","OBJECT_NAME":"GRACE-FO 1","OBJECT_TYPE":"PAYLOAD","CLASSIFICATION_TYPE":"U","INTLDES":"18047A","EPOCH":"2023-09-29 13:53:23","EPOCH_MICROSECONDS":"863488","MEAN_MOTION":"15.26908286","ECCENTRICITY":"0.0013757","INCLINATION":"88.9893","RA_OF_ASC_NODE":"334.9967","ARG_OF_PERICENTER":"8.2641","MEAN_ANOMALY":"351.8832","EPHEMERIS_TYPE":"0","ELEMENT_SET_NO":"999","REV_AT_EPOCH":"29792","BSTAR":"0.0001622","MEAN_MOTION_DOT":"0.00004323","MEAN_MOTION_DDOT":"0","FILE":"4020020","TLE_LINE0":"0 GRACE-FO 1","TLE_LINE1":"1 43476U 18047A   23272.57874842  .00004323  00000-0  16220-3 0  9991","TLE_LINE2":"2 43476  88.9893 334.9967 0013757   8.2641 351.8832 15.26908286297922","OBJECT_ID":"2018-047A","OBJECT_NUMBER":"43476","SEMIMAJOR_AXIS":"6863.198","PERIOD":"94.308","APOGEE":"494.505","PERIGEE":"475.621","DECAYED":"0"},{"COMMENT":"GENERATED VIA SPACETRACK.ORG API","ORIGINATOR":"18 SPCS","NORAD_CAT_ID":"43476","OBJECT_NAME":"GRACE-FO 1","OBJECT_TYPE":"PAYLOAD","CLASSIFICATION_TYPE":"U","INTLDES":"18047A","EPOCH":"2023-09-30 05:37:08","EPOCH_MICROSECONDS":"181408","MEAN_MOTION":"15.26913649","ECCENTRICITY":"0.0013615","INCLINATION":"88.989","RA_OF_ASC_NODE":"334.9076","ARG_OF_PERICENTER":"5.813","MEAN_ANOMALY":"354.3274","EPHEMERIS_TYPE":"0","ELEMENT_SET_NO":"999","REV_AT_EPOCH":"29802","BSTAR":"0.00015362","MEAN_MOTION_DOT":"0.00004096","MEAN_MOTION_DDOT":"0","FILE":"4020886","TLE_LINE0":"0 GRACE-FO 1","TLE_LINE1":"1 43476U 18047A   23273.23412247  .00004096  00000-0  15362-3 0  9995","TLE_LINE2":"2 43476  88.9890 334.9076 0013615   5.8130 354.3274 15.26913649298028","OBJECT_ID":"2018-047A","OBJECT_NUMBER":"43476","SEMIMAJOR_AXIS":"6863.182","PERIOD":"94.308","APOGEE":"494.391","PERIGEE":"475.703","DECAYED":"0"},{"COMMENT":"GENERATED VIA SPACETRACK.ORG API","ORIGINATOR":"18 SPCS","NORAD_CAT_ID":"43476","OBJECT_NAME":"GRACE-FO 1","OBJECT_TYPE":"PAYLOAD","CLASSIFICATION_TYPE":"U","INTLDES":"18047A","EPOCH":"2023-09-30 16:37:45","EPOCH_MICROSECONDS":"92928","MEAN_MOTION":"15.2691724","ECCENTRICITY":"0.0013521","INCLINATION":"88.9888","RA_OF_ASC_NODE":"334.8452","ARG_OF_PERICENTER":"4.0822","MEAN_ANOMALY":"356.0534","EPHEMERIS_TYPE":"0","ELEMENT_SET_NO":"999","REV_AT_EPOCH":"29809","BSTAR":"0.00014669","MEAN_MOTION_DOT":"0.00003913","MEAN_MOTION_DDOT":"0","FILE":"4020929","TLE_LINE0":"0 GRACE-FO 1","TLE_LINE1":"1 43476U 18047A   23273.69288302  .00003913  00000-0  14669-3 0  9994","TLE_LINE2":"2 43476  88.9888 334.8452 0013521   4.0822 356.0534 15.26917240298093","OBJECT_ID":"2018-047A","OBJECT_NUMBER":"43476","SEMIMAJOR_AXIS":"6863.171","PERIOD":"94.308","APOGEE":"494.316","PERIGEE":"475.757","DECAYED":"0"},{"COMMENT":"GENERATED VIA SPACETRACK.ORG API","ORIGINATOR":"18 SPCS","NORAD_CAT_ID":"43476","OBJECT_NAME":"GRACE-FO 1","OBJECT_TYPE":"PAYLOAD","CLASSIFICATION_TYPE":"U","INTLDES":"18047A","EPOCH":"2023-10-01 14:38:58","EPOCH_MICROSECONDS":"523712","MEAN_MOTION":"15.26927256","ECCENTRICITY":"0.001333","INCLINATION":"88.9884","RA_OF_ASC_NODE":"334.7206","ARG_OF_PERICENTER":"0.5565","MEAN_ANOMALY":"359.5696","EPHEMERIS_TYPE":"0","ELEMENT_SET_NO":"999","REV_AT_EPOCH":"29823","BSTAR":"0.00016941","MEAN_MOTION_DOT":"0.00004516","MEAN_MOTION_DDOT":"0","FILE":"4021853","TLE_LINE0":"0 GRACE-FO 1","TLE_LINE1":"1 43476U 18047A   23274.61039958  .00004516  00000-0  16941-3 0  9993","TLE_LINE2":"2 43476  88.9884 334.7206 0013330   0.5565 359.5696 15.26927256298239","OBJECT_ID":"2018-047A","OBJECT_NUMBER":"43476","SEMIMAJOR_AXIS":"6863.141","PERIOD":"94.307","APOGEE":"494.155","PERIGEE":"475.858","DECAYED":"0"},{"COMMENT":"GENERATED VIA SPACETRACK.ORG API","ORIGINATOR":"18 SPCS","NORAD_CAT_ID":"43476","OBJECT_NAME":"GRACE-FO 1","OBJECT_TYPE":"PAYLOAD","CLASSIFICATION_TYPE":"U","INTLDES":"18047A","EPOCH":"2023-10-01 17:47:43","EPOCH_MICROSECONDS":"267200","MEAN_MOTION":"15.26928509","ECCENTRICITY":"0.0013307","INCLINATION":"88.9884","RA_OF_ASC_NODE":"334.7028","ARG_OF_PERICENTER":"0.0656","MEAN_ANOMALY":"0.0592","EPHEMERIS_TYPE":"0","ELEMENT_SET_NO":"999","REV_AT_EPOCH":"29825","BSTAR":"0.00017125","MEAN_MOTION_DOT":"0.00004564","MEAN_MOTION_DDOT":"0","FILE":"4021875","TLE_LINE0":"0 GRACE-FO 1","TLE_LINE1":"1 43476U 18047A   23274.74147300  .00004564  00000-0  17125-3 0  9996","TLE_LINE2":"2 43476  88.9884 334.7028 0013307   0.0656   0.0592 15.26928509298258","OBJECT_ID":"2018-047A","OBJECT_NUMBER":"43476","SEMIMAJOR_AXIS":"6863.138","PERIOD":"94.307","APOGEE":"494.135","PERIGEE":"475.870","DECAYED":"0"},{"COMMENT":"GENERATED VIA SPACETRACK.ORG API","ORIGINATOR":"18 SPCS","NORAD_CAT_ID":"43476","OBJECT_NAME":"GRACE-FO 1","OBJECT_TYPE":"PAYLOAD","CLASSIFICATION_TYPE":"U","INTLDES":"18047A","EPOCH":"2023-10-01 20:56:28","EPOCH_MICROSECONDS":"4640","MEAN_MOTION":"15.26929763","ECCENTRICITY":"0.001328","INCLINATION":"88.9883","RA_OF_ASC_NODE":"334.6849","ARG_OF_PERICENTER":"359.5645","MEAN_ANOMALY":"0.559","EPHEMERIS_TYPE":"0","ELEMENT_SET_NO":"999","REV_AT_EPOCH":"29827","BSTAR":"0.00017385","MEAN_MOTION_DOT":"0.00004633","MEAN_MOTION_DDOT":"0","FILE":"4022139","TLE_LINE0":"0 GRACE-FO 1","TLE_LINE1":"1 43476U 18047A   23274.87254635  .00004633  00000-0  17385-3 0  9995","TLE_LINE2":"2 43476  88.9883 334.6849 0013280 359.5645   0.5590 15.26929763298275","OBJECT_ID":"2018-047A","OBJECT_NUMBER":"43476","SEMIMAJOR_AXIS":"6863.134","PERIOD":"94.307","APOGEE":"494.113","PERIGEE":"475.885","DECAYED":"0"},{"COMMENT":"GENERATED VIA SPACETRACK.ORG API","ORIGINATOR":"18 SPCS","NORAD_CAT_ID":"43476","OBJECT_NAME":"GRACE-FO 1","OBJECT_TYPE":"PAYLOAD","CLASSIFICATION_TYPE":"U","INTLDES":"18047A","EPOCH":"2023-10-02 20:32:03","EPOCH_MICROSECONDS":"223104","MEAN_MOTION":"15.26939525","ECCENTRICITY":"0.0013085","INCLINATION":"88.988","RA_OF_ASC_NODE":"334.5512","ARG_OF_PERICENTER":"355.7839","MEAN_ANOMALY":"4.3298","EPHEMERIS_TYPE":"0","ELEMENT_SET_NO":"999","REV_AT_EPOCH":"29842","BSTAR":"0.00018539","MEAN_MOTION_DOT":"0.0000494","MEAN_MOTION_DDOT":"0","FILE":"4022832","TLE_LINE0":"0 GRACE-FO 1","TLE_LINE1":"1 43476U 18047A   23275.85559286  .00004940  00000-0  18539-3 0  9997","TLE_LINE2":"2 43476  88.9880 334.5512 0013085 355.7839   4.3298 15.26939525298425","OBJECT_ID":"2018-047A","OBJECT_NUMBER":"43476","SEMIMAJOR_AXIS":"6863.105","PERIOD":"94.306","APOGEE":"493.950","PERIGEE":"475.989","DECAYED":"0"},{"COMMENT":"GENERATED VIA SPACETRACK.ORG API","ORIGINATOR":"18 SPCS","NORAD_CAT_ID":"43476","OBJECT_NAME":"GRACE-FO 1","OBJECT_TYPE":"PAYLOAD","CLASSIFICATION_TYPE":"U","INTLDES":"18047A","EPOCH":"2023-10-03 13:50:08","EPOCH_MICROSECONDS":"731680","MEAN_MOTION":"15.26945769","ECCENTRICITY":"0.001295","INCLINATION":"88.9878","RA_OF_ASC_NODE":"334.453","ARG_OF_PERICENTER":"352.9488","MEAN_ANOMALY":"7.1577","EPHEMERIS_TYPE":"0","ELEMENT_SET_NO":"999","REV_AT_EPOCH":"29853","BSTAR":"0.00017739","MEAN_MOTION_DOT":"0.00004729","MEAN_MOTION_DDOT":"0","FILE":"4023690","TLE_LINE0":"0 GRACE-FO 1","TLE_LINE1":"1 43476U 18047A   23276.57648995  .00004729  00000-0  17739-3 0  9999","TLE_LINE2":"2 43476  88.9878 334.4530 0012950 352.9488   7.1577 15.26945769298530","OBJECT_ID":"2018-047A","OBJECT_NUMBER":"43476","SEMIMAJOR_AXIS":"6863.086","PERIOD":"94.306","APOGEE":"493.839","PERIGEE":"476.063","DECAYED":"0"},{"COMMENT":"GENERATED VIA SPACETRACK.ORG API","ORIGINATOR":"18 SPCS","NORAD_CAT_ID":"43476","OBJECT_NAME":"GRACE-FO 1","OBJECT_TYPE":"PAYLOAD","CLASSIFICATION_TYPE":"U","INTLDES":"18047A","EPOCH":"2023-10-03 21:42:00","EPOCH_MICROSECONDS":"219744","MEAN_MOTION":"15.26949328","ECCENTRICITY":"0.0012894","INCLINATION":"88.9877","RA_OF_ASC_NODE":"334.4084","ARG_OF_PERICENTER":"351.6327","MEAN_ANOMALY":"8.4704","EPHEMERIS_TYPE":"0","ELEMENT_SET_NO":"999","REV_AT_EPOCH":"29858","BSTAR":"0.00018431","MEAN_MOTION_DOT":"0.00004912","MEAN_MOTION_DDOT":"0","FILE":"4023936","TLE_LINE0":"0 GRACE-FO 1","TLE_LINE1":"1 43476U 18047A   23276.90416921  .00004912  00000-0  18431-3 0  9992","TLE_LINE2":"2 43476  88.9877 334.4084 0012894 351.6327   8.4704 15.26949328298584","OBJECT_ID":"2018-047A","OBJECT_NUMBER":"43476","SEMIMAJOR_AXIS":"6863.075","PERIOD":"94.306","APOGEE":"493.789","PERIGEE":"476.091","DECAYED":"0"}]